{
  "type": "FeatureCollection",
  "features": [
    {
      "type": "Feature",
      "properties": {
        "norad_id": 40010,
        "name": "KAZEOSAT 2",
        "group": "resource",
        "lat": 79.16505765970402,
        "lon": 66.2619787857884,
        "alt_km": 603.3146301172619,
        "timestamp": "2025-12-24T16:52:41.157358+00:00",
        "meta_object_name": "KAZEOSAT 2",
        "meta_object_id": "2014-033A",
        "meta_epoch": "2025-12-24T06:44:14.835264",
        "meta_mean_motion": 14.85188172,
        "meta_eccentricity": 0.00086351,
        "meta_inclination": 97.5495,
        "meta_ra_of_asc_node": 201.9991,
        "meta_arg_of_pericenter": 166.4728,
        "meta_mean_anomaly": 193.6721,
        "meta_ephemeris_type": 0,
        "meta_classification_type": "U",
        "meta_norad_cat_id": 40010,
        "meta_element_set_no": 999,
        "meta_rev_at_epoch": 62299,
        "meta_bstar": 0.00014562973,
        "meta_mean_motion_dot": 1.198e-05,
        "meta_mean_motion_ddot": 0,
        "tle_line1": "1 40010U 14033A   25358.28072726  .00001198  00000+0  14563-3 0  9993",
        "tle_line2": "2 40010  97.5495 201.9991 0008635 166.4728 193.6721 14.85188172622995"
      },
      "geometry": {
        "type": "Point",
        "coordinates": [
          66.2619787857884,
          79.16505765970402
        ]
      }
    },
    {
      "type": "Feature",
      "properties": {
        "norad_id": 40011,
        "name": "HODOYOSHI-4",
        "group": "resource",
        "lat": -72.53268952393971,
        "lon": -148.1065467338284,
        "alt_km": 622.6890180359815,
        "timestamp": "2025-12-24T16:52:41.157369+00:00",
        "meta_object_name": "HODOYOSHI-4",
        "meta_object_id": "2014-033B",
        "meta_epoch": "2025-12-24T07:31:33.981600",
        "meta_mean_motion": 14.87520882,
        "meta_eccentricity": 0.00240364,
        "meta_inclination": 97.541,
        "meta_ra_of_asc_node": 186.6267,
        "meta_arg_of_pericenter": 161.7621,
        "meta_mean_anomaly": 198.4463,
        "meta_ephemeris_type": 0,
        "meta_classification_type": "U",
        "meta_norad_cat_id": 40011,
        "meta_element_set_no": 999,
        "meta_rev_at_epoch": 62280,
        "meta_bstar": 0.00015473133,
        "meta_mean_motion_dot": 1.359e-05,
        "meta_mean_motion_ddot": 0,
        "tle_line1": "1 40011U 14033B   25358.31358775  .00001359  00000+0  15473-3 0  9999",
        "tle_line2": "2 40011  97.5410 186.6267 0024036 161.7621 198.4463 14.87520882622807"
      },
      "geometry": {
        "type": "Point",
        "coordinates": [
          -148.1065467338284,
          -72.53268952393971
        ]
      }
    },
    {
      "type": "Feature",
      "properties": {
        "norad_id": 40013,
        "name": "DEIMOS-2",
        "group": "resource",
        "lat": -40.43575886472506,
        "lon": -119.35311667523813,
        "alt_km": 595.8838975664776,
        "timestamp": "2025-12-24T16:52:41.157379+00:00",
        "meta_object_name": "DEIMOS-2",
        "meta_object_id": "2014-033D",
        "meta_epoch": "2025-12-24T05:48:05.353632",
        "meta_mean_motion": 14.93018756,
        "meta_eccentricity": 0.00014046,
        "meta_inclination": 97.6055,
        "meta_ra_of_asc_node": 233.6628,
        "meta_arg_of_pericenter": 104.0371,
        "meta_mean_anomaly": 256.1005,
        "meta_ephemeris_type": 0,
        "meta_classification_type": "U",
        "meta_norad_cat_id": 40013,
        "meta_element_set_no": 999,
        "meta_rev_at_epoch": 61161,
        "meta_bstar": 0.00012798894,
        "meta_mean_motion_dot": 1.277e-05,
        "meta_mean_motion_ddot": 0,
        "tle_line1": "1 40013U 14033D   25358.24172863  .00001277  00000+0  12799-3 0  9992",
        "tle_line2": "2 40013  97.6055 233.6628 0001404 104.0371 256.1005 14.93018756611615"
      },
      "geometry": {
        "type": "Point",
        "coordinates": [
          -119.35311667523813,
          -40.43575886472506
        ]
      }
    },
    {
      "type": "Feature",
      "properties": {
        "norad_id": 40015,
        "name": "HODOYOSHI-3",
        "group": "resource",
        "lat": 80.51902411818222,
        "lon": 37.31129064298387,
        "alt_km": 614.9921667233812,
        "timestamp": "2025-12-24T16:52:41.157389+00:00",
        "meta_object_name": "HODOYOSHI-3",
        "meta_object_id": "2014-033F",
        "meta_epoch": "2025-12-24T06:44:33.590112",
        "meta_mean_motion": 14.84844764,
        "meta_eccentricity": 0.00324679,
        "meta_inclination": 97.6206,
        "meta_ra_of_asc_node": 163.6147,
        "meta_arg_of_pericenter": 208.7127,
        "meta_mean_anomaly": 151.2303,
        "meta_ephemeris_type": 0,
        "meta_classification_type": "U",
        "meta_norad_cat_id": 40015,
        "meta_element_set_no": 999,
        "meta_rev_at_epoch": 62166,
        "meta_bstar": 0.00019636656,
        "meta_mean_motion_dot": 1.631e-05,
        "meta_mean_motion_ddot": 0,
        "tle_line1": "1 40015U 14033F   25358.28094433  .00001631  00000+0  19637-3 0  9996",
        "tle_line2": "2 40015  97.6206 163.6147 0032467 208.7127 151.2303 14.84844764621665"
      },
      "geometry": {
        "type": "Point",
        "coordinates": [
          37.31129064298387,
          80.51902411818222
        ]
      }
    },
    {
      "type": "Feature",
      "properties": {
        "norad_id": 40053,
        "name": "SPOT 7",
        "group": "resource",
        "lat": -42.90020659426054,
        "lon": -127.09189114690346,
        "alt_km": 698.2535892258693,
        "timestamp": "2025-12-24T16:52:41.157400+00:00",
        "meta_object_name": "SPOT 7",
        "meta_object_id": "2014-034A",
        "meta_epoch": "2025-12-24T07:38:20.369184",
        "meta_mean_motion": 14.60748124,
        "meta_eccentricity": 0.00015365,
        "meta_inclination": 98.0889,
        "meta_ra_of_asc_node": 60.1264,
        "meta_arg_of_pericenter": 82.7737,
        "meta_mean_anomaly": 277.3639,
        "meta_ephemeris_type": 0,
        "meta_classification_type": "U",
        "meta_norad_cat_id": 40053,
        "meta_element_set_no": 999,
        "meta_rev_at_epoch": 61160,
        "meta_bstar": 0.00014756755,
        "meta_mean_motion_dot": 6.74e-06,
        "meta_mean_motion_ddot": 0,
        "tle_line1": "1 40053U 14034A   25358.31829131  .00000674  00000+0  14757-3 0  9998",
        "tle_line2": "2 40053  98.0889  60.1264 0001536  82.7737 277.3639 14.60748124611602"
      },
      "geometry": {
        "type": "Point",
        "coordinates": [
          -127.09189114690346,
          -42.90020659426054
        ]
      }
    },
    {
      "type": "Feature",
      "properties": {
        "norad_id": 40072,
        "name": "SKYSAT-B",
        "group": "resource",
        "lat": -42.525038051805105,
        "lon": 115.28844519367335,
        "alt_km": 614.1796504746535,
        "timestamp": "2025-12-24T16:52:41.157410+00:00",
        "meta_object_name": "SKYSAT-B",
        "meta_object_id": "2014-037D",
        "meta_epoch": "2025-12-23T09:12:08.448768",
        "meta_mean_motion": 14.8736338,
        "meta_eccentricity": 0.00067806,
        "meta_inclination": 98.3626,
        "meta_ra_of_asc_node": 301.6522,
        "meta_arg_of_pericenter": 120.3207,
        "meta_mean_anomaly": 239.8679,
        "meta_ephemeris_type": 0,
        "meta_classification_type": "U",
        "meta_norad_cat_id": 40072,
        "meta_element_set_no": 999,
        "meta_rev_at_epoch": 61982,
        "meta_bstar": 0.00018052931,
        "meta_mean_motion_dot": 1.571e-05,
        "meta_mean_motion_ddot": 0,
        "tle_line1": "1 40072U 14037D   25357.38343112  .00001571  00000+0  18053-3 0  9998",
        "tle_line2": "2 40072  98.3626 301.6522 0006780 120.3207 239.8679 14.87363380619827"
      },
      "geometry": {
        "type": "Point",
        "coordinates": [
          115.28844519367335,
          -42.525038051805105
        ]
      }
    },
    {
      "type": "Feature",
      "properties": {
        "norad_id": 40115,
        "name": "WORLDVIEW-3 (WV-3)",
        "group": "resource",
        "lat": 13.379669622498698,
        "lon": 68.95027783724221,
        "alt_km": 616.335472002751,
        "timestamp": "2025-12-24T16:52:41.157420+00:00",
        "meta_object_name": "WORLDVIEW-3 (WV-3)",
        "meta_object_id": "2014-048A",
        "meta_epoch": "2025-12-24T05:29:41.522784",
        "meta_mean_motion": 14.84673229,
        "meta_eccentricity": 0.00020021,
        "meta_inclination": 97.8765,
        "meta_ra_of_asc_node": 70.3687,
        "meta_arg_of_pericenter": 130.4609,
        "meta_mean_anomaly": 229.6781,
        "meta_ephemeris_type": 0,
        "meta_classification_type": "U",
        "meta_norad_cat_id": 40115,
        "meta_element_set_no": 999,
        "meta_rev_at_epoch": 61594,
        "meta_bstar": 0.00012929953,
        "meta_mean_motion_dot": 1.041e-05,
        "meta_mean_motion_ddot": 0,
        "tle_line1": "1 40115U 14048A   25358.22895281  .00001041  00000+0  12930-3 0  9991",
        "tle_line2": "2 40115  97.8765  70.3687 0002002 130.4609 229.6781 14.84673229615949"
      },
      "geometry": {
        "type": "Point",
        "coordinates": [
          68.95027783724221,
          13.379669622498698
        ]
      }
    }
  ]
}